IRIDIUM 112             
1 41925U 17003J   23289.60687079  .00000482  00000+0  16486-3 0  9990
2 41925  86.3955 135.6441 0002302  86.3136 273.8323 14.34221412353583
IRIDIUM 111             
1 41926U 17003K   23289.59418904  .00000441  00000+0  15041-3 0  9999
2 41926  86.3957 135.6983 0001921  81.0730 279.0683 14.34219796353562
IRIDIUM 113             
1 42803U 17039A   23289.50438661  .00000657  00000+0  22735-3 0  9993
2 42803  86.4034   9.4693 0002196  89.2995 270.8452 14.34220492331483
IRIDIUM 123             
1 42804U 17039B   23289.54586643  .00000627  00000+0  21687-3 0  9994
2 42804  86.4004  40.9378 0002261  87.0335 273.1119 14.34217424330259
IRIDIUM 120             
1 42805U 17039C   23289.49804204  .00000369  00000+0  12483-3 0  9992
2 42805  86.4022   9.3808 0002103  92.4468 267.6968 14.34219653331470
IRIDIUM 115             
1 42806U 17039D   23289.60607841  .00000847  00000+0  24537-3 0  9998
2 42806  86.4559   9.3257 0001995  88.7134 271.4295 14.43352610333693
IRIDIUM 118             
1 42807U 17039E   23289.36827337  .00000633  00000+0  21892-3 0  9990
2 42807  86.4004  41.0144 0002149  93.7907 266.3534 14.34217448330227
IRIDIUM 117             
1 42808U 17039F   23289.38729184  .00000114  00000+0  33712-4 0  9993
2 42808  86.4002  40.9727 0001961  94.3009 265.8411 14.34212948330253
